start=new Date('2023-03-13T00:00:00.000Z').valueOf();
sats=[{"GP_ID":"227936640","LAUNCH_DATE":"2021-04-29","INCLINATION":"53.0530","OBJECT_NAME":"STARLINK-2517","PERIAPSIS":"546.300","RCS_SIZE":"LARGE","SITE":"AFETR","CLASSIFICATION_TYPE":"U","ARG_OF_PERICENTER":"73.5718","APOAPSIS":"548.002","TIME_SYSTEM":"UTC","OBJECT_ID":"2021-036AK","FILE":"3858595","COUNTRY_CODE":"US","NORAD_CAT_ID":"48309","REV_AT_EPOCH":"10393","MEAN_MOTION":"15.06420352","PERIOD":"95.591","CENTER_NAME":"EARTH","OBJECT_TYPE":"PAYLOAD","TLE_LINE1":"1 48309U 21036AK  23071.10105538  .00014508  00000-0  99031-3 0  9995","BSTAR":"0.00099031000000","MEAN_ANOMALY":"286.5406","ECCENTRICITY":"0.00012290","TLE_LINE2":"2 48309  53.0530 320.9319 0001229  73.5718 286.5406 15.06420352103939","DECAY_DATE":null,"SEMIMAJOR_AXIS":"6925.286","RA_OF_ASC_NODE":"320.9319","REF_FRAME":"TEME","EPOCH":"2023-03-12T02:25:31.184832","MEAN_ELEMENT_THEORY":"SGP4","MEAN_MOTION_DDOT":"0.0000000000000","MEAN_MOTION_DOT":"0.00014508","EPHEMERIS_TYPE":"0","ELEMENT_SET_NO":"999"},{"NORAD_CAT_ID":"48310","OBJECT_ID":"2021-036AL","FILE":"3858534","COUNTRY_CODE":"US","ARG_OF_PERICENTER":"85.1030","TIME_SYSTEM":"UTC","APOAPSIS":"548.041","LAUNCH_DATE":"2021-04-29","OBJECT_NAME":"STARLINK-2536","INCLINATION":"53.0540","GP_ID":"227929911","RCS_SIZE":"LARGE","CLASSIFICATION_TYPE":"U","SITE":"AFETR","PERIAPSIS":"546.378","ELEMENT_SET_NO":"999","EPHEMERIS_TYPE":"0","MEAN_MOTION_DOT":"0.00005036","EPOCH":"2023-03-12T02:20:12.556320","REF_FRAME":"TEME","RA_OF_ASC_NODE":"320.9403","MEAN_MOTION_DDOT":"0.0000000000000","MEAN_ELEMENT_THEORY":"SGP4","MEAN_ANOMALY":"275.0096","ECCENTRICITY":"0.00012010","DECAY_DATE":null,"SEMIMAJOR_AXIS":"6925.345","TLE_LINE2":"2 48310  53.0540 320.9403 0001201  85.1030 275.0096 15.06401265103347","PERIOD":"95.592","MEAN_MOTION":"15.06401265","REV_AT_EPOCH":"10334","TLE_LINE1":"1 48310U 21036AL  23071.09736755  .00005036  00000-0  35673-3 0  9994","BSTAR":"0.00035673000000","CENTER_NAME":"EARTH","OBJECT_TYPE":"PAYLOAD"},{"MEAN_MOTION_DDOT":"0.0000000000000","MEAN_ELEMENT_THEORY":"SGP4","RA_OF_ASC_NODE":"318.2846","REF_FRAME":"TEME","EPOCH":"2023-03-12T16:34:42.899520","MEAN_MOTION_DOT":"0.00041208","EPHEMERIS_TYPE":"0","ELEMENT_SET_NO":"999","OBJECT_TYPE":"PAYLOAD","CENTER_NAME":"EARTH","BSTAR":"0.00276230000000","TLE_LINE1":"1 48311U 21036AM  23071.69077430  .00041208  00000-0  27623-2 0  9995","REV_AT_EPOCH":"10343","PERIOD":"95.586","MEAN_MOTION":"15.06492865","TLE_LINE2":"2 48311  53.0539 318.2846 0000800  40.7773 319.3276 15.06492865103430","SEMIMAJOR_AXIS":"6925.064","DECAY_DATE":null,"ECCENTRICITY":"0.00008000","MEAN_ANOMALY":"319.3276","COUNTRY_CODE":"US","FILE":"3858743","OBJECT_ID":"2021-036AM","NORAD_CAT_ID":"48311","PERIAPSIS":"546.375","SITE":"AFETR","CLASSIFICATION_TYPE":"U","RCS_SIZE":"LARGE","GP_ID":"227962379","INCLINATION":"53.0539","OBJECT_NAME":"STARLINK-2534","LAUNCH_DATE":"2021-04-29","APOAPSIS":"547.483","TIME_SYSTEM":"UTC","ARG_OF_PERICENTER":"40.7773"},{"GP_ID":"227930390","INCLINATION":"53.0538","OBJECT_NAME":"STARLINK-2061","LAUNCH_DATE":"2021-04-29","PERIAPSIS":"545.958","CLASSIFICATION_TYPE":"U","SITE":"AFETR","RCS_SIZE":"LARGE","ARG_OF_PERICENTER":"63.2491","APOAPSIS":"548.630","TIME_SYSTEM":"UTC","OBJECT_ID":"2021-036AN","COUNTRY_CODE":"US","FILE":"3858534","NORAD_CAT_ID":"48312","REV_AT_EPOCH":"10334","MEAN_MOTION":"15.06373837","PERIOD":"95.594","OBJECT_TYPE":"PAYLOAD","CENTER_NAME":"EARTH","BSTAR":"0.00101910000000","TLE_LINE1":"1 48312U 21036AN  23071.09002506  .00014920  00000-0  10191-2 0  9995","ECCENTRICITY":"0.00019290","MEAN_ANOMALY":"296.8695","TLE_LINE2":"2 48312  53.0538 320.9777 0001929  63.2491 296.8695 15.06373837103344","SEMIMAJOR_AXIS":"6925.429","DECAY_DATE":null,"REF_FRAME":"TEME","EPOCH":"2023-03-12T02:09:38.165184","RA_OF_ASC_NODE":"320.9777","MEAN_ELEMENT_THEORY":"SGP4","MEAN_MOTION_DDOT":"0.0000000000000","EPHEMERIS_TYPE":"0","MEAN_MOTION_DOT":"0.00014920","ELEMENT_SET_NO":"999"},{"SEMIMAJOR_AXIS":"6925.333","DECAY_DATE":null,"TLE_LINE2":"2 48313  53.0543 318.3136 0001135  95.7121 264.3997 15.06405199103421","ECCENTRICITY":"0.00011350","MEAN_ANOMALY":"264.3997","BSTAR":"0.00038657000000","TLE_LINE1":"1 48313U 21036AP  23071.68343661  .00005482  00000-0  38657-3 0  9992","OBJECT_TYPE":"PAYLOAD","CENTER_NAME":"EARTH","PERIOD":"95.592","MEAN_MOTION":"15.06405199","REV_AT_EPOCH":"10342","ELEMENT_SET_NO":"999","EPHEMERIS_TYPE":"0","MEAN_MOTION_DOT":"0.00005482","MEAN_MOTION_DDOT":"0.0000000000000","MEAN_ELEMENT_THEORY":"SGP4","REF_FRAME":"TEME","EPOCH":"2023-03-12T16:24:08.923104","RA_OF_ASC_NODE":"318.3136","TIME_SYSTEM":"UTC","APOAPSIS":"547.984","ARG_OF_PERICENTER":"95.7121","SITE":"AFETR","CLASSIFICATION_TYPE":"U","RCS_SIZE":"LARGE","PERIAPSIS":"546.412","OBJECT_NAME":"STARLINK-2541","INCLINATION":"53.0543","LAUNCH_DATE":"2021-04-29","GP_ID":"227961378","NORAD_CAT_ID":"48313","COUNTRY_CODE":"US","FILE":"3858743","OBJECT_ID":"2021-036AP"},{"COUNTRY_CODE":"US","FILE":"3858534","OBJECT_ID":"2021-036AQ","NORAD_CAT_ID":"48314","PERIAPSIS":"546.451","SITE":"AFETR","CLASSIFICATION_TYPE":"U","RCS_SIZE":"LARGE","GP_ID":"227929411","INCLINATION":"53.0527","OBJECT_NAME":"STARLINK-2549","LAUNCH_DATE":"2021-04-29","APOAPSIS":"547.947","TIME_SYSTEM":"UTC","ARG_OF_PERICENTER":"111.8283","MEAN_ELEMENT_THEORY":"SGP4","MEAN_MOTION_DDOT":"0.0000000000000","EPOCH":"2023-03-12T01:58:58.990944","REF_FRAME":"TEME","RA_OF_ASC_NODE":"321.0163","MEAN_MOTION_DOT":"0.00007641","EPHEMERIS_TYPE":"0","ELEMENT_SET_NO":"999","OBJECT_TYPE":"PAYLOAD","CENTER_NAME":"EARTH","BSTAR":"0.00053124000000","TLE_LINE1":"1 48314U 21036AQ  23071.08262721  .00007641  00000-0  53124-3 0  9999","REV_AT_EPOCH":"10333","PERIOD":"95.592","MEAN_MOTION":"15.06404836","TLE_LINE2":"2 48314  53.0527 321.0163 0001080 111.8283 248.2821 15.06404836103337","SEMIMAJOR_AXIS":"6925.334","DECAY_DATE":null,"ECCENTRICITY":"0.00010800","MEAN_ANOMALY":"248.2821"},{"FILE":"3858534","COUNTRY_CODE":"US","OBJECT_ID":"2021-036AR","NORAD_CAT_ID":"48315","PERIAPSIS":"546.102","RCS_SIZE":"LARGE","SITE":"AFETR","CLASSIFICATION_TYPE":"U","GP_ID":"227930162","LAUNCH_DATE":"2021-04-29","INCLINATION":"53.0554","OBJECT_NAME":"STARLINK-2506","APOAPSIS":"548.179","TIME_SYSTEM":"UTC","ARG_OF_PERICENTER":"61.1473","MEAN_ELEMENT_THEORY":"SGP4","MEAN_MOTION_DDOT":"0.0000000000000","EPOCH":"2023-03-12T03:27:51.105600","RA_OF_ASC_NODE":"320.7244","REF_FRAME":"TEME","EPHEMERIS_TYPE":"0","MEAN_MOTION_DOT":"0.00019416","ELEMENT_SET_NO":"999","CENTER_NAME":"EARTH","OBJECT_TYPE":"PAYLOAD","TLE_LINE1":"1 48315U 21036AR  23071.14434150  .00019416  00000-0  13179-2 0  9992","BSTAR":"0.00131790000000","REV_AT_EPOCH":"10334","MEAN_MOTION":"15.06423852","PERIOD":"95.591","TLE_LINE2":"2 48315  53.0554 320.7244 0001499  61.1473 298.9666 15.06423852103345","DECAY_DATE":null,"SEMIMAJOR_AXIS":"6925.275","MEAN_ANOMALY":"298.9666","ECCENTRICITY":"0.00014990"},{"ARG_OF_PERICENTER":"71.0224","TIME_SYSTEM":"UTC","APOAPSIS":"548.655","LAUNCH_DATE":"2021-04-29","INCLINATION":"53.0529","OBJECT_NAME":"STARLINK-2507","GP_ID":"227930891","RCS_SIZE":"LARGE","SITE":"AFETR","CLASSIFICATION_TYPE":"U","PERIAPSIS":"545.582","NORAD_CAT_ID":"48316","OBJECT_ID":"2021-036AS","FILE":"3858534","COUNTRY_CODE":"US","MEAN_ANOMALY":"289.1005","ECCENTRICITY":"0.00022190","DECAY_DATE":null,"SEMIMAJOR_AXIS":"6925.253","TLE_LINE2":"2 48316  53.0529 321.0445 0002219  71.0224 289.1005 15.06431092103333","PERIOD":"95.590","MEAN_MOTION":"15.06431092","REV_AT_EPOCH":"10333","TLE_LINE1":"1 48316U 21036AS  23071.07525668  .00036531  00000-0  24566-2 0  9999","BSTAR":"0.00245660000000","CENTER_NAME":"EARTH","OBJECT_TYPE":"PAYLOAD","ELEMENT_SET_NO":"999","EPHEMERIS_TYPE":"0","MEAN_MOTION_DOT":"0.00036531","REF_FRAME":"TEME","RA_OF_ASC_NODE":"321.0445","EPOCH":"2023-03-12T01:48:22.177152","MEAN_ELEMENT_THEORY":"SGP4","MEAN_MOTION_DDOT":"0.0000000000000"},{"REF_FRAME":"TEME","EPOCH":"2023-03-12T03:18:36.788256","RA_OF_ASC_NODE":"320.7644","MEAN_ELEMENT_THEORY":"SGP4","MEAN_MOTION_DDOT":"0.0000000000000","ELEMENT_SET_NO":"999","MEAN_MOTION_DOT":"0.00005192","EPHEMERIS_TYPE":"0","MEAN_MOTION":"15.06359965","PERIOD":"95.595","REV_AT_EPOCH":"10334","BSTAR":"0.00036757000000","TLE_LINE1":"1 48317U 21036AT  23071.13792579  .00005192  00000-0  36757-3 0  9999","OBJECT_TYPE":"PAYLOAD","CENTER_NAME":"EARTH","ECCENTRICITY":"0.00010320","MEAN_ANOMALY":"214.4472","SEMIMAJOR_AXIS":"6925.471","DECAY_DATE":null,"TLE_LINE2":"2 48317  53.0541 320.7644 0001032 145.6584 214.4472 15.06359965103342","OBJECT_ID":"2021-036AT","COUNTRY_CODE":"US","FILE":"3858534","NORAD_CAT_ID":"48317","INCLINATION":"53.0541","OBJECT_NAME":"STARLINK-2513","LAUNCH_DATE":"2021-04-29","GP_ID":"227931156","SITE":"AFETR","CLASSIFICATION_TYPE":"U","RCS_SIZE":"LARGE","PERIAPSIS":"546.622","ARG_OF_PERICENTER":"145.6584","TIME_SYSTEM":"UTC","APOAPSIS":"548.051"},{"MEAN_MOTION_DDOT":"0.0000000000000","MEAN_ELEMENT_THEORY":"SGP4","REF_FRAME":"TEME","EPOCH":"2023-03-11T23:55:34.343328","RA_OF_ASC_NODE":"331.4005","ELEMENT_SET_NO":"999","MEAN_MOTION_DOT":"0.00023387","EPHEMERIS_TYPE":"0","TLE_LINE1":"1 48318U 21036AU  23070.99692527  .00023387  00000-0  15824-2 0  9992","BSTAR":"0.00158240000000","CENTER_NAME":"EARTH","OBJECT_TYPE":"PAYLOAD","MEAN_MOTION":"15.06432261","PERIOD":"95.590","REV_AT_EPOCH":"10318","DECAY_DATE":null,"SEMIMAJOR_AXIS":"6925.250","TLE_LINE2":"2 48318  53.0545 331.4005 0001496  87.7094 272.4066 15.06432261103189","MEAN_ANOMALY":"272.4066","ECCENTRICITY":"0.00014960","FILE":"3858534","COUNTRY_CODE":"US","OBJECT_ID":"2021-036AU","NORAD_CAT_ID":"48318","RCS_SIZE":"LARGE","CLASSIFICATION_TYPE":"U","SITE":"AFETR","PERIAPSIS":"546.079","LAUNCH_DATE":"2021-04-29","INCLINATION":"53.0545","OBJECT_NAME":"STARLINK-2509","GP_ID":"227929912","TIME_SYSTEM":"UTC","APOAPSIS":"548.151","ARG_OF_PERICENTER":"87.7094"}];
